NORAD_CAT_ID,OBJECT_NAME,OBJECT_TYPE,EPOCH,MEAN_MOTION,ECCENTRICITY,INCLINATION,RA_OF_ASC_NODE,ARG_OF_PERICENTER,MEAN_ANOMALY,BSTAR,MEAN_MOTION_DOT,MEAN_MOTION_DDOT,TLE_LINE0,TLE_LINE1,TLE_LINE2,SEMIMAJOR_AXIS,PERIOD,APOGEE,PERIGEE,DECAYED
51788.0,STARLINK-3641,PAYLOAD,2022-06-03 21:34:53,15.08851052,0.0002024,53.2216,40.7867,47.0997,313.0165,4.958e-05,5.01e-06,0.0,0 STARLINK-3641,1 51788U 22017W   22154.89922861  .00000501  00000-0  49580-4 0  9996,2 51788  53.2216  40.7867 0002024  47.0997 313.0165 15.08851052 16377,6917.847,95.437,541.112,538.311,0.0
51788.0,STARLINK-3641,PAYLOAD,2022-06-03 23:10:16,15.08847777,0.0002023,53.2218,40.4893,46.9218,313.1943,3.4525e-05,2.61e-06,0.0,0 STARLINK-3641,1 51788U 22017W   22154.96547098  .00000261  00000-0  34525-4 0  9995,2 51788  53.2218  40.4893 0002023  46.9218 313.1943 15.08847777 16383,6917.857,95.437,541.121,538.322,0.0
51788.0,STARLINK-3641,PAYLOAD,2022-06-05 22:00:00,15.08848577,0.0002184,53.22,31.7326,48.3376,116.1608,-0.00077188,-0.00012555,0.0,0 STARLINK-3641,1 51788U 22017W   22156.91667824 -.00012555  00000-0 -77188-3 0  9994,2 51788  53.2200  31.7326 0002184  48.3376 116.1608 15.08848577 16677,6917.854,95.437,541.23,538.2080000000002,0.0
51788.0,STARLINK-3641,PAYLOAD,2022-06-06 14:00:01,15.088119,0.0001959,53.2197,28.7383,52.1527,135.5465,0.0021752,0.00034474,0.0,0 STARLINK-3641,1 51788U 22017W   22157.58334491  .00034474  00000-0  21752-2 0  9996,2 51788  53.2197  28.7383 0001959  52.1527 135.5465 15.08811900  1301,6917.965999999999,95.439,541.187,538.476,0.0
51788.0,STARLINK-3641,PAYLOAD,2022-06-06 22:00:00,15.08833346,0.0002131,53.2196,27.2439,48.6063,150.6741,-0.00039741,-6.606e-05,0.0,0 STARLINK-3641,1 51788U 22017W   22157.91667824 -.00006606  00000-0 -39741-3 0  9998,2 51788  53.2196  27.2439 0002131  48.6063 150.6741 15.08833346  1307,6917.901,95.438,541.24,538.2919999999998,0.0
51788.0,STARLINK-3641,PAYLOAD,2022-06-07 06:00:00,15.08852563,0.0002108,53.2193,25.747,48.3,162.5608,-0.0015473,-0.00024838,0.0,0 STARLINK-3641,1 51788U 22017W   22158.25001157 -.00024838  00000-0 -15473-2 0  9999,2 51788  53.2193  25.7470 0002108  48.3000 162.5608 15.08852563 16878,6917.842,95.437,541.165,538.249,0.0
51788.0,STARLINK-3641,PAYLOAD,2022-06-07 14:00:01,15.08833111,0.0002003,53.2195,24.2496,54.2635,168.1989,0.0021405,0.00033936,0.0,0 STARLINK-3641,1 51788U 22017W   22158.58334491  .00033936  00000-0  21405-2 0  9994,2 51788  53.2195  24.2496 0002003  54.2635 168.1989 15.08833111  1300,6917.901,95.438,541.1519999999998,538.381,0.0
51788.0,STARLINK-3641,PAYLOAD,2022-06-07 22:00:00,15.08863282,0.0002144,53.2195,22.7551,49.5109,184.558,-0.0021041,-0.00033641,0.0,0 STARLINK-3641,1 51788U 22017W   22158.91667824 -.00033641  00000-0 -21041-2 0  9991,2 51788  53.2195  22.7551 0002144  49.5109 184.5580 15.08863282 16974,6917.809,95.436,541.1569999999998,538.191,0.0
51788.0,STARLINK-3641,PAYLOAD,2022-06-08 14:00:01,15.08836663,0.0001951,53.2195,19.7607,53.0993,204.1692,0.00071059,0.00011038,0.0,0 STARLINK-3641,1 51788U 22017W   22159.58334491  .00011038  00000-0  71059-3 0  9995,2 51788  53.2195  19.7607 0001951  53.0993 204.1692 15.08836663 17076,6917.891,95.438,541.105,538.406,0.0
51788.0,STARLINK-3641,PAYLOAD,2022-06-08 22:00:01,15.08823999,0.0002111,53.2196,18.2662,47.3392,221.595,-0.0004373,-7.238e-05,0.0,0 STARLINK-3641,1 51788U 22017W   22159.91668981 -.00007238  00000-0 -43730-3 0  9990,2 51788  53.2196  18.2662 0002111  47.3392 221.5950 15.08823999  1307,6917.929,95.439,541.255,538.3340000000002,0.0
51788.0,STARLINK-3641,PAYLOAD,2022-06-09 06:00:00,15.08840814,0.0002035,53.2195,16.7693,46.5159,233.9196,-0.0019617,-0.00031375,0.0,0 STARLINK-3641,1 51788U 22017W   22160.25001157 -.00031375  00000-0 -19617-2 0  9990,2 51788  53.2195  16.7693 0002035  46.5159 233.9196 15.08840814 17176,6917.878000000002,95.438,541.151,538.335,0.0
51788.0,STARLINK-3641,PAYLOAD,2022-06-09 14:00:01,15.08822211,0.0001981,53.2199,15.272,52.5213,239.4959,0.0018559,0.00029358,0.0,0 STARLINK-3641,1 51788U 22017W   22160.58334491  .00029358  00000-0  18559-2 0  9996,2 51788  53.2199  15.2720 0001981  52.5213 239.4959 15.08822211  1309,6917.935,95.439,541.17,538.429,0.0
51788.0,STARLINK-3641,PAYLOAD,2022-06-09 22:00:00,15.08829907,0.0002193,53.2199,13.7776,48.0027,255.6043,0.00065812,0.00010199,0.0,0 STARLINK-3641,1 51788U 22017W   22160.91667824  .00010199  00000-0  65812-3 0  9990,2 51788  53.2199  13.7776 0002193  48.0027 255.6043 15.08829907  1305,6917.911,95.438,541.293,538.259,0.0
51788.0,STARLINK-3641,PAYLOAD,2022-06-10 00:00:00,15.08816855,0.0002189,53.22,13.4039,47.2734,349.2343,0.0027383,0.00043534,0.0,0 STARLINK-3641,1 51788U 22017W   22161.00001157  .00043534  00000-0  27383-2 0  9991,2 51788  53.2200  13.4039 0002189  47.2734 349.2343 15.08816855 17294,6917.951,95.439,541.33,538.302,0.0
51788.0,STARLINK-3641,PAYLOAD,2022-06-10 14:00:01,15.08856676,0.0002,53.2203,10.7829,52.5463,274.2512,-0.0012034,-0.00019398,0.0,0 STARLINK-3641,1 51788U 22017W   22161.58334491 -.00019398  00000-0 -12034-2 0  9994,2 51788  53.2203  10.7829 0002000  52.5463 274.2512 15.08856676 17373,6917.829000000002,95.436,541.078,538.311,0.0
51788.0,STARLINK-3641,PAYLOAD,2022-06-10 22:00:00,15.08823762,0.0002167,53.2203,9.2885,47.0649,291.3435,0.0010017,0.00015683,0.0,0 STARLINK-3641,1 51788U 22017W   22161.91667824  .00015683  00000-0  10017-2 0  9990,2 51788  53.2203   9.2885 0002167  47.0649 291.3435 15.08823762  1307,6917.93,95.439,541.294,538.2959999999998,0.0
51788.0,STARLINK-3641,PAYLOAD,2022-06-11 22:00:00,15.08808736,0.0002077,53.2204,4.7998,45.5619,327.6247,0.001216,0.00019101,0.0,0 STARLINK-3641,1 51788U 22017W   22162.91667824  .00019101  00000-0  12160-2 0  9991,2 51788  53.2204   4.7998 0002077  45.5619 327.6247 15.08808736 17588,6917.976,95.44,541.278,538.404,0.0
51788.0,STARLINK-3641,PAYLOAD,2022-06-12 14:00:01,15.08836215,0.0001879,53.2203,1.8056,51.7557,344.5782,0.00078007,0.00012147,0.0,0 STARLINK-3641,1 51788U 22017W   22163.58334491  .00012147  00000-0  78007-3 0  9992,2 51788  53.2203   1.8056 0001879  51.7557 344.5782 15.08836215  1307,6917.892,95.438,541.057,538.457,0.0
51788.0,STARLINK-3641,PAYLOAD,2022-06-12 22:00:00,15.08829759,0.0002056,53.2201,0.3109,46.7504,1.1852,0.0016254,0.00025668,0.0,0 STARLINK-3641,1 51788U 22017W   22163.91667824  .00025668  00000-0  16254-2 0  9995,2 51788  53.2201   0.3109 0002056  46.7504   1.1852 15.08829759  1301,6917.9119999999975,95.438,541.1990000000002,538.354,0.0
51788.0,STARLINK-3641,PAYLOAD,2022-06-13 06:00:02,15.08861633,0.0001907,53.2198,358.8131,48.6596,10.9357,-0.0011777,-0.00018994,0.0,0 STARLINK-3641,1 51788U 22017W   22164.25002315 -.00018994  00000-0 -11777-2 0  9992,2 51788  53.2198 358.8131 0001907  48.6596  10.9357 15.08861633 17782,6917.814,95.436,540.998,538.36,0.0
51788.0,STARLINK-3641,PAYLOAD,2022-06-13 14:00:01,15.08869343,0.0001797,53.2199,357.3166,51.5262,19.6198,-0.0020457,-0.00032724,0.0,0 STARLINK-3641,1 51788U 22017W   22164.58334491 -.00032724  00000-0 -20457-2 0  9993,2 51788  53.2199 357.3166 0001797  51.5262  19.6198 15.08869343  1301,6917.791,95.436,540.899,538.413,0.0
51788.0,STARLINK-3641,PAYLOAD,2022-06-13 22:00:00,15.08839083,0.0001918,53.2196,355.8219,44.4624,38.3026,0.00045793,7.007e-05,0.0,0 STARLINK-3641,1 51788U 22017W   22164.91667824  .00007007  00000-0  45793-3 0  9994,2 51788  53.2196 355.8219 0001918  44.4624  38.3026 15.08839083  1304,6917.8830000000025,95.438,541.075,538.4209999999998,0.0
51788.0,STARLINK-3641,PAYLOAD,2022-06-14 06:00:00,15.08835185,0.0001734,53.2194,354.324,45.8361,48.5317,-0.00061166,-0.00010008,0.0,0 STARLINK-3641,1 51788U 22017W   22165.25001157 -.00010008  00000-0 -61166-3 0  9992,2 51788  53.2194 354.3240 0001734  45.8361  48.5317 15.08835185 17930,6917.895,95.438,540.96,538.561,0.0
51788.0,STARLINK-3641,PAYLOAD,2022-06-14 14:00:01,15.08859402,0.0001671,53.2193,352.8275,48.2266,57.7184,-0.0022105,-0.00035315,0.0,0 STARLINK-3641,1 51788U 22017W   22165.58334491 -.00035315  00000-0 -22105-2 0  9995,2 51788  53.2193 352.8275 0001671  48.2266  57.7184 15.08859402  1307,6917.821,95.436,540.842,538.53,0.0
51788.0,STARLINK-3641,PAYLOAD,2022-06-14 22:00:00,15.08798724,0.0001784,53.2192,351.3328,40.861,76.6878,0.0020556,0.00032541,0.0,0 STARLINK-3641,1 51788U 22017W   22165.91667824  .00032541  00000-0  20556-2 0  9995,2 51788  53.2192 351.3328 0001784  40.8610  76.6878 15.08798724  1304,6918.007,95.44,541.106,538.637,0.0
51788.0,STARLINK-3641,PAYLOAD,2022-06-15 14:00:01,15.08841243,0.0001663,53.2192,348.3385,47.1546,93.5248,-0.00028134,-4.763e-05,0.0,0 STARLINK-3641,1 51788U 22017W   22166.58334491 -.00004763  00000-0 -28134-3 0  9998,2 51788  53.2192 348.3385 0001663  47.1546  93.5248 15.08841243 18130,6917.877,95.437,540.8919999999998,538.591,0.0
51788.0,STARLINK-3641,PAYLOAD,2022-06-15 22:00:00,15.08818535,0.000183,53.2191,346.8437,39.9974,112.2838,0.0033855,0.00053974,0.0,0 STARLINK-3641,1 51788U 22017W   22166.91667824  .00053974  00000-0  33855-2 0  9995,2 51788  53.2191 346.8437 0001830  39.9974 112.2838 15.08818535  1303,6917.946,95.439,541.077,538.545,0.0
51788.0,STARLINK-3641,PAYLOAD,2022-06-16 02:00:01,15.08871171,0.0001774,53.2188,346.0948,38.8542,299.2139,-0.0023796,-0.00037993,0.0,0 STARLINK-3641,1 51788U 22017W   22167.08334491 -.00037993  00000-0 -23796-2 0  9993,2 51788  53.2188 346.0948 0001774  38.8542 299.2139 15.08871171  1309,6917.785,95.436,540.877,538.423,0.0
51788.0,STARLINK-3641,PAYLOAD,2022-06-19 14:00:01,15.08861163,0.0001882,53.2205,330.3836,45.8235,233.9204,-0.0014618,-0.00023491,0.0,0 STARLINK-3641,1 51788U 22017W   22170.58334491 -.00023491  00000-0 -14618-2 0  9993,2 51788  53.2205 330.3836 0001882  45.8235 233.9204 15.08861163  1306,6917.816,95.436,540.9830000000002,538.379,0.0
